ONEWEB-0080             
1 45426U 20020C   22273.78338093 -.00000180  00000+0 -54331-3 0  9991
2 45426  87.8780 290.4585 0001625  97.6288 262.5025 13.11414223125055
ONEWEB-0090             
1 45427U 20020D   22274.10541737  .00000340  00000+0  92442-3 0  9991
2 45427  87.8788 290.4475 0001697  91.0526 269.0797 13.11419005125077
ONEWEB-0061             
1 45428U 20020E   22273.75534279 -.00000158  00000+0 -48302-3 0  9990
2 45428  87.8778 290.4505 0001888  83.2057 276.9285 13.11413692124978
ONEWEB-0081             
1 45429U 20020F   22273.81369604  .00000544  00000+0  14990-2 0  9998
2 45429  87.8790 290.4550 0001837  78.9801 281.1534 13.11416849125091
ONEWEB-0069             
1 45430U 20020G   22274.10766391  .00000412  00000+0  11267-2 0  9995
2 45430  87.8781 290.4098 0001594  86.2245 273.9065 13.11418002125073
ONEWEB-0031             
1 45431U 20020H   22274.08072867 -.00000487  00000+0 -14097-2 0  9999
2 45431  87.8775 290.3956 0001933  92.8192 267.3158 13.11416907125049
ONEWEB-0027             
1 45432U 20020J   22274.23570293 -.00000006  00000+0 -49459-4 0  9992
2 45432  87.9012 275.1525 0001695  93.8814 266.2511 13.17648737127929
ONEWEB-0064             
1 45433U 20020K   22273.77330468 -.00000463  00000+0 -13435-2 0  9999
2 45433  87.8781 290.4865 0001440 106.8732 253.2554 13.11416493125030
ONEWEB-0018             
1 45434U 20020L   22274.10991423  .00000496  00000+0  13645-2 0  9999
2 45434  87.8779 290.3870 0001708  84.1206 276.0116 13.11418473125031
ONEWEB-0083             
1 45435U 20020M   22273.79349304  .00000266  00000+0  71426-3 0  9996
2 45435  87.8782 290.4611 0001858  93.3038 266.8303 13.11419414125021
ONEWEB-0095             
1 45436U 20020N   22273.78955632 -.00000052  00000+0 -18137-3 0  9998
2 45436  87.8787 290.4743 0002185  95.8408 264.2969 13.11418826125021
ONEWEB-0092             
1 45437U 20020P   22273.75310274 -.00000015  00000+0 -78422-4 0  9996
2 45437  87.8789 290.4611 0002108  93.9790 266.1579 13.11416318125130
ONEWEB-0085             
1 45438U 20020Q   22274.09195084 -.00000242  00000+0 -71773-3 0  9998
2 45438  87.8780 290.4214 0001564  84.5808 275.5498 13.11417059125072
ONEWEB-0096             
1 45439U 20020R   22274.10093551  .00000166  00000+0  43364-3 0  9995
2 45439  87.8780 290.4000 0001781  81.9577 278.1752 13.11418071125067
ONEWEB-0037             
1 45440U 20020S   22274.08523191 -.00000380  00000+0 -11073-2 0  9993
2 45440  87.8776 290.4040 0001992  89.8040 270.3316 13.11417758125098
ONEWEB-0042             
1 45441U 20020T   22274.06726264  .00006093  00000+0  17152-1 0  9996
2 45441  87.8774 290.4091 0002575  86.1920 273.9502 13.11381247125064
ONEWEB-0098             
1 45442U 20020U   22273.78227317 -.00000315  00000+0 -92453-3 0  9992
2 45442  87.8778 290.4606 0001556  84.4911 275.6394 13.11419750124990
ONEWEB-0055             
1 45443U 20020V   22273.76656378 -.00000532  00000+0 -15363-2 0  9999
2 45443  87.8788 290.4600 0001591  88.0895 272.0415 13.11417024124960
ONEWEB-0093             
1 45444U 20020W   22274.12337450  .00000470  00000+0  12913-2 0  9995
2 45444  87.8779 290.4030 0001568  86.8308 273.2999 13.11416675125082
ONEWEB-0029             
1 45445U 20020X   22273.76319831 -.00000343  00000+0 -10049-2 0  9997
2 45445  87.8779 290.4621 0001886  79.4811 280.6529 13.11415309125005
ONEWEB-0068             
1 45446U 20020Y   22273.81033941  .00000588  00000+0  16245-2 0  9992
2 45446  87.8778 290.4619 0001518  80.8174 279.3126 13.11417041124958
ONEWEB-0046             
1 45447U 20020Z   22274.11214433  .00000562  00000+0  15504-2 0  9993
2 45447  87.8781 290.4121 0001935  91.1170 269.0179 13.11418508125016
ONEWEB-0063             
1 45448U 20020AA  22273.75982997 -.00000306  00000+0 -89932-3 0  9995
2 45448  87.8768 290.4628 0002112  93.3808 266.7562 13.11416397125041
ONEWEB-0019             
1 45449U 20020AB  22273.81145390  .00000544  00000+0  14992-2 0  9996
2 45449  87.8782 290.4586 0001722  95.8517 264.2808 13.11415118124899
ONEWEB-0094             
1 45450U 20020AC  22273.70251491 -.00000477  00000+0 -12615-2 0  9993
2 45450  87.8989 275.1225 0001764  90.5695 269.5639 13.17643795127809
ONEWEB-0087             
1 45451U 20020AD  22274.07400736 -.00000517  00000+0 -14935-2 0  9995
2 45451  87.8786 290.4477 0001878  77.9837 282.1501 13.11416724124986
ONEWEB-0082             
1 45452U 20020AE  22274.07622593 -.00001041  00000+0 -29748-2 0  9994
2 45452  87.8785 290.3738 0001536  77.0703 283.0597 13.11415956125071
ONEWEB-0050             
1 45453U 20020AF  22273.77285745  .00006329  00000+0  53840-3 0  9998
2 45453  87.5448 207.6285 0025951 181.2542 178.8629 14.97409289138033
ONEWEB-0034             
1 45454U 20020AG  22273.78900960  .00000013  00000+0  36880-6 0  9995
2 45454  87.8777 290.4507 0001850  85.3154 274.8185 13.11418210124942
ONEWEB-0060             
1 45455U 20020AH  22273.79689061  .00000344  00000+0  93552-3 0  9996
2 45455  87.8782 290.4610 0001847  90.5100 269.6240 13.11419963124905
ONEWEB-0086             
1 45456U 20020AJ  22274.12114740  .00000417  00000+0  11399-2 0  9991
2 45456  87.8780 290.3872 0001686  83.2078 276.9241 13.11415119125000
ONEWEB-0088             
1 45457U 20020AK  22273.79124479  .00000106  00000+0  26347-3 0  9999
2 45457  87.8776 290.4624 0001953  85.4949 274.6402 13.11418877124894
YAOGAN-30 R             
1 45460U 20021A   22274.22024200  .00001553  00000+0  15774-3 0  9993
2 45460  34.9970 109.8231 0003394 109.6994 250.4080 14.90785468137466
YAOGAN-30 S             
1 45461U 20021B   22273.99761691  .00001518  00000+0  15431-3 0  9990
2 45461  34.9970 110.8186 0003529 348.5520  11.5104 14.90751881137406
YAOGAN-30 T             
1 45462U 20021C   22273.97458154  .00001516  00000+0  15403-3 0  9993
2 45462  34.9980 108.8601 0001924 226.2001 133.8544 14.90772164137425
AEHF-6 (USA 298)        
1 45465U 20022B   22273.77685271 -.00000300  00000+0  00000+0 0  9991
2 45465   5.7085 302.0204 0046161 357.7948 127.0337  1.00276571  9420
STARLINK-1329           
1 45531U 20025A   22273.61055697  .00001950  00000+0  14977-3 0  9997
2 45531  53.0562 345.3822 0001450  65.1520 294.9620 15.06408123135772
STARLINK-1338           
1 45532U 20025B   22273.68795980  .00004665  00000+0  33199-3 0  9994
2 45532  53.0571 345.0401 0001572  67.4596 292.6560 15.06387928135784
STARLINK-1341           
1 45534U 20025D   22273.49999454  .00013929  00000+0  95245-3 0  9990
2 45534  53.0551 345.8697 0001824  39.1807 320.9313 15.06387931135167
STARLINK-1350           
1 45535U 20025E   22274.18187804  .00007226  00000+0  50329-3 0  9993
2 45535  53.0559 342.8114 0001483  59.2281 300.8854 15.06415767135275
STARLINK-1352           
1 45536U 20025F   22273.72113735  .00019976  00000+0  13556-2 0  9990
2 45536  53.0550 344.8821 0001561  65.3336 294.7815 15.06415926135781
STARLINK-1353           
1 45537U 20025G   22274.17194480  .00051811  00000+0  17885-2 0  9990
2 45537  52.9748 281.1514 0005110  53.1154 307.0311 15.29466736136104
STARLINK-1362           
1 45538U 20025H   22273.68060175  .00014251  00000+0  97337-3 0  9997
2 45538  53.0541 345.0737 0001812  57.9521 302.1644 15.06411438135782
STARLINK-1368           
1 45540U 20025K   22273.72480846  .00002062  00000+0  15720-3 0  9999
2 45540  53.0554 344.8779 0001600  65.1447 294.9709 15.06414283135786
STARLINK-1369           
1 45541U 20025L   22274.19292468  .00001295  00000+0  10577-3 0  9995
2 45541  53.0564 342.7678 0001352  67.9266 292.1866 15.06405826135277
STARLINK-1371           
1 45542U 20025M   22274.22610334  .00002896  00000+0  21320-3 0  9992
2 45542  53.0553 342.6289 0001446  64.5016 295.6123 15.06406228135274
STARLINK-1372           
1 45543U 20025N   22273.93120737 -.00003958  00000+0 -24673-3 0  9999
2 45543  53.0570 343.9426 0001351  72.2043 287.9094 15.06437597135232
STARLINK-1373           
1 45544U 20025P   22274.21504331 -.00000017  00000+0  17732-4 0  9999
2 45544  53.0563 342.6772 0001401  73.2762 286.8381 15.06415023135260
STARLINK-1374           
1 45545U 20025Q   22273.63636558  .00021866  00000+0  14816-2 0  9994
2 45545  53.0564 345.2649 0002034  50.1303 309.9864 15.06416981135753
STARLINK-1375           
1 45546U 20025R   22273.58106482  .00004759  00000+0  33813-3 0  9998
2 45546  53.0530 345.5246 0001504  72.1080 288.0073 15.06404859135761
STARLINK-1377           
1 45547U 20025S   22273.64373733  .00004502  00000+0  32100-3 0  9995
2 45547  53.0549 345.2420 0001535  75.9055 284.2105 15.06393831135783
STARLINK-1378           
1 45548U 20025T   22273.93490788  .00001993  00000+0  15265-3 0  9992
2 45548  53.0555 343.9269 0001483  78.1918 281.9237 15.06407595135235
STARLINK-1390           
1 45550U 20025V   22273.68701712  .00001245  00000+0  10249-3 0  9996
2 45550  53.0551 345.0215 0001543  65.7883 294.3267 15.06401576135771
STARLINK-1294           
1 45551U 20025W   22273.62344505  .00000902  00000+0  79408-4 0  9996
2 45551  53.0570 325.3253 0001634  64.6252 295.4906 15.06404631136054
STARLINK-1323           
1 45553U 20025Y   22274.16529076  .00011963  00000+0  82033-3 0  9992
2 45553  53.0554 322.8786 0001777  60.4630 299.6536 15.06414898135536
STARLINK-1325           
1 45554U 20025Z   22273.62618524  .00002562  00000+0  19079-3 0  9995
2 45554  53.0564 325.2960 0001663  53.4861 306.6281 15.06406497136051
STARLINK-1327           
1 45555U 20025AA  22273.85566359  .00003489  00000+0  25295-3 0  9995
2 45555  53.0559 324.2808 0001428  61.1578 298.9554 15.06409587136088
STARLINK-1334           
1 45556U 20025AB  22274.16160240  .00001897  00000+0  14621-3 0  9992
2 45556  53.0543 322.9074 0001563  55.8437 304.2700 15.06403461135534
STARLINK-1336           
1 45557U 20025AC  22273.83722800  .00004520  00000+0  32203-3 0  9994
2 45557  53.0535 324.3747 0001347  62.9602 297.1525 15.06415724136083
